[
    {
        "CCSDS_OMM_VERS": "3.0",
        "COMMENT": "GENERATED VIA SPACE-TRACK.ORG API",
        "CREATION_DATE": "2025-04-14T03:05:54",
        "ORIGINATOR": "18 SPCS",
        "OBJECT_NAME": "BEIDOU 3M4",
        "OBJECT_ID": "2018-003B",
        "CENTER_NAME": "EARTH",
        "REF_FRAME": "TEME",
        "TIME_SYSTEM": "UTC",
        "MEAN_ELEMENT_THEORY": "SGP4",
        "EPOCH": "2025-04-12T15:49:33.258144",
        "MEAN_MOTION": "1.86231099",
        "ECCENTRICITY": "0.00026160",
        "INCLINATION": "54.6964",
        "RA_OF_ASC_NODE": "317.2677",
        "ARG_OF_PERICENTER": "282.0534",
        "MEAN_ANOMALY": "77.9520",
        "EPHEMERIS_TYPE": "0",
        "CLASSIFICATION_TYPE": "U",
        "NORAD_CAT_ID": "43108",
        "ELEMENT_SET_NO": "999",
        "REV_AT_EPOCH": "4934",
        "BSTAR": "0.00000000000000",
        "MEAN_MOTION_DOT": "-0.00000070",
        "MEAN_MOTION_DDOT": "0.0000000000000",
        "SEMIMAJOR_AXIS": "27906.179",
        "PERIOD": "773.233",
        "APOAPSIS": "21535.344",
        "PERIAPSIS": "21520.743",
        "OBJECT_TYPE": "PAYLOAD",
        "RCS_SIZE": "LARGE",
        "COUNTRY_CODE": "PRC",
        "LAUNCH_DATE": "2018-01-11",
        "SITE": "XSC",
        "DECAY_DATE": null,
        "FILE": "4701263",
        "GP_ID": "285538848",
        "TLE_LINE0": "0 BEIDOU 3M4",
        "TLE_LINE1": "1 43108U 18003B   25102.65941271 -.00000070  00000-0  00000-0 0  9991",
        "TLE_LINE2": "2 43108  54.6964 317.2677 0002616 282.0534  77.9520  1.86231099 49343"
    }
]